NORAD_CAT_ID,OBJECT_NAME,OBJECT_TYPE,EPOCH,MEAN_MOTION,ECCENTRICITY,INCLINATION,RA_OF_ASC_NODE,ARG_OF_PERICENTER,MEAN_ANOMALY,BSTAR,MEAN_MOTION_DOT,MEAN_MOTION_DDOT,TLE_LINE0,TLE_LINE1,TLE_LINE2,SEMIMAJOR_AXIS,PERIOD,APOGEE,PERIGEE,DECAYED
53594.0,STARLINK-4681,PAYLOAD,2022-11-20 14:00:01,15.08825701,0.0001536,53.2172,254.0249,56.8593,356.094,-9.2686e-05,-1.762e-05,0.0,0 STARLINK-4681,1 53594U 22104G   22324.58334491 -.00001762  00000-0 -92686-4 0  9998,2 53594  53.2172 254.0249 0001536  56.8593 356.0940 15.08825701  1303,6917.924,95.438,540.852,538.727,0.0
53594.0,STARLINK-4681,PAYLOAD,2022-11-20 22:00:00,15.08834833,0.0001626999999999,53.2173,252.529,60.2857,4.2425,-0.0020563,-0.00032861,0.0,0 STARLINK-4681,1 53594U 22104G   22324.91667824 -.00032861  00000-0 -20563-2 0  9991,2 53594  53.2173 252.5290 0001627  60.2857   4.2425 15.08834833  1302,6917.896,95.438,540.887,538.636,0.0
53594.0,STARLINK-4681,PAYLOAD,2022-11-21 06:00:00,15.08793478,0.0001771,53.2171,251.034,53.9426,22.1632,0.0033393,0.00053191,0.0,0 STARLINK-4681,1 53594U 22104G   22325.25001157  .00053191  00000-0  33393-2 0  9992,2 53594  53.2171 251.0340 0001771  53.9426  22.1632 15.08793478 13098,6918.023,95.44,541.113,538.6619999999998,0.0
53594.0,STARLINK-4681,PAYLOAD,2022-11-21 14:00:01,15.08814951,0.0001629,53.2171,249.536,60.6558,27.0209,0.0018252,0.0002886,0.0,0 STARLINK-4681,1 53594U 22104G   22325.58334491  .00028860  00000-0  18252-2 0  9990,2 53594  53.2171 249.5360 0001629  60.6558  27.0209 15.08814951  1300,6917.956999999999,95.439,540.9490000000002,538.695,0.0
53594.0,STARLINK-4681,PAYLOAD,2022-11-21 22:00:00,15.08854605,0.0001709,53.2171,248.0402,61.864,37.3844,-0.0011545,-0.00018622,0.0,0 STARLINK-4681,1 53594U 22104G   22325.91667824 -.00018622  00000-0 -11545-2 0  9991,2 53594  53.2171 248.0402 0001709  61.8640  37.3844 15.08854605 13194,6917.8359999999975,95.437,540.883,538.518,0.0
53594.0,STARLINK-4681,PAYLOAD,2022-11-22 00:00:00,15.08849409,0.0001745,53.217,247.6667,59.5671,132.5846,-0.00080866,-0.00013138,0.0,0 STARLINK-4681,1 53594U 22104G   22326.00001157 -.00013138  00000-0 -80866-3 0  9993,2 53594  53.2170 247.6667 0001745  59.5671 132.5846 15.08849409  1305,6917.852,95.437,540.924,538.509,0.0
53594.0,STARLINK-4681,PAYLOAD,2022-11-22 14:00:01,15.08825528,0.0001593,53.2167,245.0469,60.7301,61.8007,0.00092763,0.000145,0.0,0 STARLINK-4681,1 53594U 22104G   22326.58335648  .00014500  00000-0  92763-3 0  9992,2 53594  53.2167 245.0469 0001593  60.7301  61.8007 15.08825528  1307,6917.925,95.438,540.8919999999998,538.688,0.0
53594.0,STARLINK-4681,PAYLOAD,2022-11-22 22:00:00,15.08858568,0.0001664,53.2168,243.5513,60.3644,73.6803,-0.002438,-0.000389,0.0,0 STARLINK-4681,1 53594U 22104G   22326.91667824 -.00038900  00000-0 -24380-2 0  9994,2 53594  53.2168 243.5513 0001664  60.3644  73.6803 15.08858568 13348,6917.824000000001,95.436,540.84,538.538,0.0
53594.0,STARLINK-4681,PAYLOAD,2022-11-23 14:00:01,15.08808177,0.0001561,53.2165,240.5581,58.4058,98.8275,0.0023641,0.00037504,0.0,0 STARLINK-4681,1 53594U 22104G   22327.58334491  .00037504  00000-0  23641-2 0  9995,2 53594  53.2165 240.5581 0001561  58.4058  98.8275 15.08808177 13444,6917.978,95.44,540.923,538.763,0.0
53594.0,STARLINK-4681,PAYLOAD,2022-11-23 22:00:00,15.08848562,0.000169,53.2166,239.0626,58.8131,109.9896,-0.0012988,-0.00020904,0.0,0 STARLINK-4681,1 53594U 22104G   22327.91667824 -.00020904  00000-0 -12988-2 0  9991,2 53594  53.2166 239.0626 0001690  58.8131 109.9896 15.08848562  1304,6917.854,95.437,540.888,538.55,0.0
53594.0,STARLINK-4681,PAYLOAD,2022-11-24 08:00:01,15.08837418,0.0001779,53.2163,237.1927,55.9843,217.2855,-0.00073196,-0.00011918,0.0,0 STARLINK-4681,1 53594U 22104G   22328.33334491 -.00011918  00000-0 -73196-3 0  9993,2 53594  53.2163 237.1927 0001779  55.9843 217.2855 15.08837418 13556,6917.888000000001,95.438,540.984,538.523,0.0
53594.0,STARLINK-4681,PAYLOAD,2022-11-24 14:00:01,15.08813209,0.0001698,53.2164,236.0692,61.1865,130.7818,0.00269,0.00042752,0.0,0 STARLINK-4681,1 53594U 22104G   22328.58334491  .00042752  00000-0  26900-2 0  9998,2 53594  53.2164 236.0692 0001698  61.1865 130.7818 15.08813209  1307,6917.962,95.439,541.002,538.653,0.0
53594.0,STARLINK-4681,PAYLOAD,2022-11-24 22:00:00,15.08854451,0.0001833,53.2165,234.5739,60.8758,142.6712,-0.0011512,-0.0001857,0.0,0 STARLINK-4681,1 53594U 22104G   22328.91667824 -.00018570  00000-0 -11512-2 0  9990,2 53594  53.2165 234.5739 0001833  60.8758 142.6712 15.08854451  1300,6917.8359999999975,95.437,540.969,538.433,0.0
53594.0,STARLINK-4681,PAYLOAD,2022-11-25 08:00:01,15.08878784,0.0001828,53.2163,232.7037,56.0226,252.0226,-0.0037358,-0.00059318,0.0,0 STARLINK-4681,1 53594U 22104G   22329.33334491 -.00059318  00000-0 -37358-2 0  9999,2 53594  53.2163 232.7037 0001828  56.0226 252.0226 15.08878784 13708,6917.762,95.435,540.891,538.362,0.0
53594.0,STARLINK-4681,PAYLOAD,2022-11-25 14:00:01,15.08822344,0.0001712,53.2164,231.5802,60.6152,166.1591,0.0021206,0.00033606,0.0,0 STARLINK-4681,1 53594U 22104G   22329.58334491  .00033606  00000-0  21206-2 0  9991,2 53594  53.2164 231.5802 0001712  60.6152 166.1591 15.08822344  1301,6917.934,95.439,540.984,538.615,0.0
53594.0,STARLINK-4681,PAYLOAD,2022-11-25 22:00:00,15.08857034,0.0001819,53.2164,230.085,59.2944,179.0676,-0.00062809,-0.00010275,0.0,0 STARLINK-4681,1 53594U 22104G   22329.91667824 -.00010275  00000-0 -62809-3 0  9991,2 53594  53.2164 230.0850 0001819  59.2944 179.0676 15.08857034 13796,6917.828,95.436,540.952,538.435,0.0
53594.0,STARLINK-4681,PAYLOAD,2022-11-26 00:00:00,15.08852192,0.0001876,53.2164,229.7113,57.425,273.8411,1.4252e-05,-6.1e-07,0.0,0 STARLINK-4681,1 53594U 22104G   22330.00001157 -.00000061  00000-0  14252-4 0  9995,2 53594  53.2164 229.7113 0001876  57.4250 273.8411 15.08852192  1300,6917.843000000003,95.437,541.006,538.41,0.0
53594.0,STARLINK-4681,PAYLOAD,2022-11-26 14:00:01,15.08827795,0.0001662,53.2163,227.0911,60.3526,201.2525,0.0022961,0.00036432,0.0,0 STARLINK-4681,1 53594U 22104G   22330.58334491  .00036432  00000-0  22961-2 0  9992,2 53594  53.2163 227.0911 0001662  60.3526 201.2525 15.08827795  1300,6917.918000000002,95.438,540.932,538.633,0.0
53594.0,STARLINK-4681,PAYLOAD,2022-11-26 22:00:00,15.08854333,0.00017,53.2163,225.596,56.4123,216.7893,-0.0026634,-0.00042444,0.0,0 STARLINK-4681,1 53594U 22104G   22330.91667824 -.00042444  00000-0 -26634-2 0  9991,2 53594  53.2163 225.5960 0001700  56.4123 216.7893 15.08854333  1306,6917.837,95.437,540.878,538.526,0.0
53594.0,STARLINK-4681,PAYLOAD,2022-11-27 06:00:00,15.08847506,0.0001668,53.2159,224.1,50.7926,233.9994,-0.0022456,-0.00035857,0.0,0 STARLINK-4681,1 53594U 22104G   22331.25001157 -.00035857  00000-0 -22456-2 0  9998,2 53594  53.2159 224.1000 0001668  50.7926 233.9994 15.08847506 13997,6917.857,95.437,540.876,538.569,0.0
53594.0,STARLINK-4681,PAYLOAD,2022-11-27 14:00:01,15.08790484,0.0001489,53.2161,222.602,57.6699,238.7181,0.0034348,0.00054727,0.0,0 STARLINK-4681,1 53594U 22104G   22331.58334491  .00054727  00000-0  34348-2 0  9992,2 53594  53.2161 222.6020 0001489  57.6699 238.7181 15.08790484  1304,6918.031999999997,95.441,540.927,538.867,0.0
53594.0,STARLINK-4681,PAYLOAD,2022-11-27 22:00:00,15.08831666,0.0001615,53.2161,221.107,54.5618,253.3828,-0.00097934,-0.00015837,0.0,0 STARLINK-4681,1 53594U 22104G   22331.91667824 -.00015837  00000-0 -97934-3 0  9990,2 53594  53.2161 221.1070 0001615  54.5618 253.3828 15.08831666 14090,6917.906,95.438,540.888,538.654,0.0
53594.0,STARLINK-4681,PAYLOAD,2022-11-28 14:00:01,15.08816025,0.0001509,53.2157,218.1129,60.2292,270.8914,0.0036188,0.00057739,0.0,0 STARLINK-4681,1 53594U 22104G   22332.58334491  .00057739  00000-0  36188-2 0  9993,2 53594  53.2157 218.1129 0001509  60.2292 270.8914 15.08816025 14205,6917.954000000002,95.439,540.863,538.775,0.0
53594.0,STARLINK-4681,PAYLOAD,2022-11-28 22:00:01,15.08855864,0.0001636999999999,53.2157,216.6179,55.9459,286.8259,-0.001012,-0.00016365,0.0,0 STARLINK-4681,1 53594U 22104G   22332.91668981 -.00016365  00000-0 -10120-2 0  9994,2 53594  53.2157 216.6179 0001637  55.9459 286.8259 15.08855864  1301,6917.831999999999,95.437,540.8290000000002,538.564,0.0
53594.0,STARLINK-4681,PAYLOAD,2022-11-29 06:00:00,15.08875395,0.0001615,53.2153,215.1215,52.2403,302.0711,-0.0038184,-0.00060606,0.0,0 STARLINK-4681,1 53594U 22104G   22333.25001157 -.00060606  00000-0 -38184-2 0  9995,2 53594  53.2153 215.1215 0001615  52.2403 302.0711 15.08875395 14306,6917.772,95.435,540.754,538.52,0.0
53594.0,STARLINK-4681,PAYLOAD,2022-11-29 14:00:01,15.08820555,0.0001482,53.2153,213.6236,60.8858,305.1055,0.0012234,0.00019226,0.0,0 STARLINK-4681,1 53594U 22104G   22333.58335648  .00019226  00000-0  12234-2 0  9994,2 53594  53.2153 213.6236 0001482  60.8858 305.1055 15.08820555  1302,6917.94,95.439,540.83,538.78,0.0
53594.0,STARLINK-4681,PAYLOAD,2022-11-29 22:00:00,15.08825779,0.0001706,53.2154,212.1289,57.9237,319.5874,-0.0013727,-0.0002206,0.0,0 STARLINK-4681,1 53594U 22104G   22333.91667824 -.00022060  00000-0 -13727-2 0  9995,2 53594  53.2154 212.1289 0001706  57.9237 319.5874 15.08825779 14408,6917.924,95.438,540.969,538.609,0.0
53594.0,STARLINK-4681,PAYLOAD,2022-11-30 14:00:01,15.08806884,0.0001605,53.2152,209.1336,64.1507,336.57199999999995,0.0031296,0.00049827,0.0,0 STARLINK-4681,1 53594U 22104G   22334.58335648  .00049827  00000-0  31296-2 0  9994,2 53594  53.2152 209.1336 0001605  64.1507 336.5720 15.08806884 14509,6917.982,95.44,540.957,538.736,0.0
53594.0,STARLINK-4681,PAYLOAD,2022-11-30 22:00:00,15.08821724,0.0001683,53.2162,207.6367,62.6015,349.6408,0.0027814,0.00044234,0.0,0 STARLINK-4681,1 53594U 22104G   22334.91667824  .00044234  00000-0  27814-2 0  9993,2 53594  53.2162 207.6367 0001683  62.6015 349.6408 15.08821724  1302,6917.936,95.439,540.966,538.637,0.0
